[{"OBJECT_NAME":"STARLINK-36238","OBJECT_ID":"2026-070X","EPOCH":"2026-04-18T06:00:02.999808","MEAN_MOTION":15.80912848,"ECCENTRICITY":7.95e-5,"INCLINATION":53.1589,"RA_OF_ASC_NODE":185.9483,"ARG_OF_PERICENTER":94.9628,"MEAN_ANOMALY":232.4576,"EPHEMERIS_TYPE":0,"CLASSIFICATION_TYPE":"U","NORAD_CAT_ID":68563,"ELEMENT_SET_NO":999,"REV_AT_EPOCH":369,"BSTAR":-0.00039884432,"MEAN_MOTION_DOT":-0.00078844,"MEAN_MOTION_DDOT":0},{"OBJECT_NAME":"STARLINK-37008","OBJECT_ID":"2026-070Y","EPOCH":"2026-04-18T06:00:02.999808","MEAN_MOTION":15.8095398,"ECCENTRICITY":6.159e-5,"INCLINATION":53.1608,"RA_OF_ASC_NODE":185.9308,"ARG_OF_PERICENTER":60.7556,"MEAN_ANOMALY":275.1583,"EPHEMERIS_TYPE":0,"CLASSIFICATION_TYPE":"U","NORAD_CAT_ID":68564,"ELEMENT_SET_NO":999,"REV_AT_EPOCH":374,"BSTAR":-0.00043265396,"MEAN_MOTION_DOT":-0.00085563,"MEAN_MOTION_DDOT":0},{"OBJECT_NAME":"STARLINK-37161","OBJECT_ID":"2026-070Z","EPOCH":"2026-04-18T06:00:02.999808","MEAN_MOTION":15.8087327,"ECCENTRICITY":0.00011841,"INCLINATION":53.1608,"RA_OF_ASC_NODE":185.9216,"ARG_OF_PERICENTER":92.6104,"MEAN_ANOMALY":247.632,"EPHEMERIS_TYPE":0,"CLASSIFICATION_TYPE":"U","NORAD_CAT_ID":68565,"ELEMENT_SET_NO":999,"REV_AT_EPOCH":374,"BSTAR":5.6989662e-5,"MEAN_MOTION_DOT":0.00010563,"MEAN_MOTION_DDOT":0},{"OBJECT_NAME":"STARLINK-37212","OBJECT_ID":"2026-070AA","EPOCH":"2026-04-18T06:00:02.999808","MEAN_MOTION":15.80891054,"ECCENTRICITY":0.00010702,"INCLINATION":53.1608,"RA_OF_ASC_NODE":185.9123,"ARG_OF_PERICENTER":90.8925,"MEAN_ANOMALY":253.6177,"EPHEMERIS_TYPE":0,"CLASSIFICATION_TYPE":"U","NORAD_CAT_ID":68566,"ELEMENT_SET_NO":999,"REV_AT_EPOCH":374,"BSTAR":-0.00013338603,"MEAN_MOTION_DOT":-0.00026964,"MEAN_MOTION_DDOT":0},{"OBJECT_NAME":"STARLINK-37261","OBJECT_ID":"2026-070AB","EPOCH":"2026-04-18T06:00:02.999808","MEAN_MOTION":15.80971508,"ECCENTRICITY":0.0001043,"INCLINATION":53.1588,"RA_OF_ASC_NODE":185.9038,"ARG_OF_PERICENTER":101.2717,"MEAN_ANOMALY":247.453,"EPHEMERIS_TYPE":0,"CLASSIFICATION_TYPE":"U","NORAD_CAT_ID":68567,"ELEMENT_SET_NO":999,"REV_AT_EPOCH":374,"BSTAR":-0.00066261611,"MEAN_MOTION_DOT":-0.00130116,"MEAN_MOTION_DDOT":0},{"OBJECT_NAME":"STARLINK-37283","OBJECT_ID":"2026-070AC","EPOCH":"2026-04-18T00:00:04.000320","MEAN_MOTION":15.80838078,"ECCENTRICITY":0.00010468,"INCLINATION":53.1591,"RA_OF_ASC_NODE":187.5762,"ARG_OF_PERICENTER":78.4908,"MEAN_ANOMALY":84.1358,"EPHEMERIS_TYPE":0,"CLASSIFICATION_TYPE":"U","NORAD_CAT_ID":68568,"ELEMENT_SET_NO":999,"REV_AT_EPOCH":370,"BSTAR":0.00034048775,"MEAN_MOTION_DOT":0.00066916,"MEAN_MOTION_DDOT":0},{"OBJECT_NAME":"STARLINK-37256","OBJECT_ID":"2026-070AD","EPOCH":"2026-04-18T00:00:04.000320","MEAN_MOTION":15.80856338,"ECCENTRICITY":0.00010356,"INCLINATION":53.1589,"RA_OF_ASC_NODE":187.5848,"ARG_OF_PERICENTER":93.219,"MEAN_ANOMALY":65.1294,"EPHEMERIS_TYPE":0,"CLASSIFICATION_TYPE":"U","NORAD_CAT_ID":68569,"ELEMENT_SET_NO":999,"REV_AT_EPOCH":370,"BSTAR":0.00015134513,"MEAN_MOTION_DOT":0.0002925,"MEAN_MOTION_DDOT":0},{"OBJECT_NAME":"STARLINK-37228","OBJECT_ID":"2026-070AE","EPOCH":"2026-04-18T00:00:04.000320","MEAN_MOTION":15.80833478,"ECCENTRICITY":0.00011042,"INCLINATION":53.1589,"RA_OF_ASC_NODE":187.5675,"ARG_OF_PERICENTER":76.1108,"MEAN_ANOMALY":90.7864,"EPHEMERIS_TYPE":0,"CLASSIFICATION_TYPE":"U","NORAD_CAT_ID":68570,"ELEMENT_SET_NO":999,"REV_AT_EPOCH":370,"BSTAR":0.00040917115,"MEAN_MOTION_DOT":0.00080668,"MEAN_MOTION_DDOT":0},{"OBJECT_NAME":"MERIDIAN-M 21L","OBJECT_ID":"2026-071A","EPOCH":"2026-04-14T09:33:05.456448","MEAN_MOTION":1.98596107,"ECCENTRICITY":0.72346467,"INCLINATION":62.779,"RA_OF_ASC_NODE":237.3403,"ARG_OF_PERICENTER":284.9939,"MEAN_ANOMALY":10.816,"EPHEMERIS_TYPE":0,"CLASSIFICATION_TYPE":"U","NORAD_CAT_ID":68571,"ELEMENT_SET_NO":999,"REV_AT_EPOCH":23,"BSTAR":0.0080351969,"MEAN_MOTION_DOT":4.89e-6,"MEAN_MOTION_DDOT":0},{"OBJECT_NAME":"KUIPER-00131","OBJECT_ID":"2026-072A","EPOCH":"2026-04-17T22:57:14.586048","MEAN_MOTION":15.36699012,"ECCENTRICITY":0.000754,"INCLINATION":51.8683,"RA_OF_ASC_NODE":108.2416,"ARG_OF_PERICENTER":147.8928,"MEAN_ANOMALY":212.2519,"EPHEMERIS_TYPE":0,"CLASSIFICATION_TYPE":"U","NORAD_CAT_ID":68573,"ELEMENT_SET_NO":999,"REV_AT_EPOCH":211,"BSTAR":-0.0057646108,"MEAN_MOTION_DOT":-0.00204929,"MEAN_MOTION_DDOT":0},{"OBJECT_NAME":"KUIPER-00189","OBJECT_ID":"2026-072B","EPOCH":"2026-04-18T06:00:02.999808","MEAN_MOTION":15.23854898,"ECCENTRICITY":9.323e-5,"INCLINATION":51.8807,"RA_OF_ASC_NODE":107.0311,"ARG_OF_PERICENTER":101.7974,"MEAN_ANOMALY":321.161,"EPHEMERIS_TYPE":0,"CLASSIFICATION_TYPE":"U","NORAD_CAT_ID":68574,"ELEMENT_SET_NO":999,"REV_AT_EPOCH":265,"BSTAR":-0.026311303,"MEAN_MOTION_DOT":-0.00600855,"MEAN_MOTION_DDOT":0},{"OBJECT_NAME":"KUIPER-00192","OBJECT_ID":"2026-072C","EPOCH":"2026-04-17T21:17:27.368448","MEAN_MOTION":15.37647406,"ECCENTRICITY":0.00050278,"INCLINATION":51.8736,"RA_OF_ASC_NODE":108.5275,"ARG_OF_PERICENTER":140.187,"MEAN_ANOMALY":219.9486,"EPHEMERIS_TYPE":0,"CLASSIFICATION_TYPE":"U","NORAD_CAT_ID":68575,"ELEMENT_SET_NO":999,"REV_AT_EPOCH":210,"BSTAR":0.00031737229,"MEAN_MOTION_DOT":0.00011542,"MEAN_MOTION_DDOT":0},{"OBJECT_NAME":"KUIPER-00193","OBJECT_ID":"2026-072D","EPOCH":"2026-04-17T21:15:30.120192","MEAN_MOTION":15.37687211,"ECCENTRICITY":0.00033141,"INCLINATION":51.8739,"RA_OF_ASC_NODE":108.5181,"ARG_OF_PERICENTER":126.7967,"MEAN_ANOMALY":233.3324,"EPHEMERIS_TYPE":0,"CLASSIFICATION_TYPE":"U","NORAD_CAT_ID":68576,"ELEMENT_SET_NO":999,"REV_AT_EPOCH":210,"BSTAR":0.00033006294,"MEAN_MOTION_DOT":0.00012034,"MEAN_MOTION_DDOT":0},{"OBJECT_NAME":"KUIPER-00194","OBJECT_ID":"2026-072E","EPOCH":"2026-04-17T21:10:36.594336","MEAN_MOTION":15.38101739,"ECCENTRICITY":0.00028495,"INCLINATION":51.8752,"RA_OF_ASC_NODE":108.4931,"ARG_OF_PERICENTER":124.4163,"MEAN_ANOMALY":235.7093,"EPHEMERIS_TYPE":0,"CLASSIFICATION_TYPE":"U","NORAD_CAT_ID":68577,"ELEMENT_SET_NO":999,"REV_AT_EPOCH":210,"BSTAR":0.00040455502,"MEAN_MOTION_DOT":0.00015049,"MEAN_MOTION_DDOT":0},{"OBJECT_NAME":"KUIPER-00229","OBJECT_ID":"2026-072F","EPOCH":"2026-04-17T21:25:43.231872","MEAN_MOTION":15.36942324,"ECCENTRICITY":0.00075307,"INCLINATION":51.8694,"RA_OF_ASC_NODE":108.5657,"ARG_OF_PERICENTER":146.1324,"MEAN_ANOMALY":214.0145,"EPHEMERIS_TYPE":0,"CLASSIFICATION_TYPE":"U","NORAD_CAT_ID":68578,"ELEMENT_SET_NO":999,"REV_AT_EPOCH":210,"BSTAR":0.00029816675,"MEAN_MOTION_DOT":0.00010572,"MEAN_MOTION_DDOT":0}]
